{"type": "FeatureCollection", "features": [ {"type": "Feature", "properties": {"norad_id": 41836, "name": "HIMAWARI-9", "group": "weather", "lat": -0.0030031509038268016, "lon": -26.62637383348474, "alt_km": 35778.32593089188, "timestamp": "2025-12-18T07:01:54.229491+00:00", "meta": {"OBJECT_NAME": "HIMAWARI-9", "OBJECT_ID": "2016-064A", "EPOCH": "2025-12-17T20:50:37.363200", "MEAN_MOTION": 1.00271116, "ECCENTRICITY": 0.00019052, "INCLINATION": 0.0216, "RA_OF_ASC_NODE": 332.3604, "ARG_OF_PERICENTER": 358.4008, "MEAN_ANOMALY": 209.3857, "EPHEMERIS_TYPE": 0, "CLASSIFICATION_TYPE": "U", "NORAD_CAT_ID": 41836, "ELEMENT_SET_NO": 999, "REV_AT_EPOCH": 3339, "BSTAR": 0, "MEAN_MOTION_DOT": 0, "MEAN_MOTION_DDOT": 0}, "tle": {"line1": "1 41836U 16064A   25351.86848800  .00000000  00000+0  00000+0 0  9995", "line2": "2 41836   0.0216 332.3604 0001905 358.4008 209.3857  1.00271116 33398"}}, "geometry": {"type": "Point", "coordinates": [-26.62637383348474, -0.0030031509038268016]}}, {"type": "Feature", "properties": {"norad_id": 41866, "name": "GOES 16", "group": "weather", "lat": 0.011207447186366879, "lon": 87.94722785188233, "alt_km": 35798.79143390168, "timestamp": "2025-12-18T07:01:54.229503+00:00", "meta": {"OBJECT_NAME": "GOES 16", "OBJECT_ID": "2016-071A", "EPOCH": "2025-12-17T21:23:19.231584", "MEAN_MOTION": 1.00272331, "ECCENTRICITY": 0.00030388, "INCLINATION": 0.0692, "RA_OF_ASC_NODE": 104.9948, "ARG_OF_PERICENTER": 160.0571, "MEAN_ANOMALY": 37.8661, "EPHEMERIS_TYPE": 0, "CLASSIFICATION_TYPE": "U", "NORAD_CAT_ID": 41866, "ELEMENT_SET_NO": 999, "REV_AT_EPOCH": 3328, "BSTAR": 0, "MEAN_MOTION_DOT": -6.6e-07, "MEAN_MOTION_DDOT": 0}, "tle": {"line1": "1 41866U 16071A   25351.89119481 -.00000066  00000+0  00000+0 0  9998", "line2": "2 41866   0.0692 104.9948 0003038 160.0571  37.8661  1.00272331 33289"}}, "geometry": {"type": "Point", "coordinates": [87.94722785188233, 0.011207447186366879]}}, {"type": "Feature", "properties": {"norad_id": 41882, "name": "FENGYUN 4A", "group": "weather", "lat": -1.5237487955198907, "lon": -43.56766539591204, "alt_km": 35787.694258602955, "timestamp": "2025-12-18T07:01:54.229515+00:00", "meta": {"OBJECT_NAME": "FENGYUN 4A", "OBJECT_ID": "2016-077A", "EPOCH": "2025-12-17T20:45:45.328608", "MEAN_MOTION": 1.00267498, "ECCENTRICITY": 0.0004519, "INCLINATION": 1.862, "RA_OF_ASC_NODE": 82.3435, "ARG_OF_PERICENTER": 143.3411, "MEAN_ANOMALY": 296.2663, "EPHEMERIS_TYPE": 0, "CLASSIFICATION_TYPE": "U", "NORAD_CAT_ID": 41882, "ELEMENT_SET_NO": 999, "REV_AT_EPOCH": 3311, "BSTAR": 0, "MEAN_MOTION_DOT": -3.33e-06, "MEAN_MOTION_DDOT": 0}, "tle": {"line1": "1 41882U 16077A   25351.86510797 -.00000333  00000+0  00000+0 0  9991", "line2": "2 41882   1.8620  82.3435 0004519 143.3411 296.2663  1.00267498 33112"}}, "geometry": {"type": "Point", "coordinates": [-43.56766539591204, -1.5237487955198907]}}, {"type": "Feature", "properties": {"norad_id": 41884, "name": "CYGFM05", "group": "weather", "lat": 19.90218421880325, "lon": 42.06044768057904, "alt_km": 425.97613193877896, "timestamp": "2025-12-18T07:01:54.229527+00:00", "meta": {"OBJECT_NAME": "CYGFM05", "OBJECT_ID": "2016-078A", "EPOCH": "2025-12-17T18:29:28.179456", "MEAN_MOTION": 15.47820001, "ECCENTRICITY": 0.00106647, "INCLINATION": 34.9607, "RA_OF_ASC_NODE": 14.265, "ARG_OF_PERICENTER": 228.0607, "MEAN_ANOMALY": 131.9207, "EPHEMERIS_TYPE": 0, "CLASSIFICATION_TYPE": "U", "NORAD_CAT_ID": 41884, "ELEMENT_SET_NO": 999, "REV_AT_EPOCH": 50054, "BSTAR": 0.00030107417, "MEAN_MOTION_DOT": 0.00016139, "MEAN_MOTION_DDOT": 0}, "tle": {"line1": "1 41884U 16078A   25351.77046504  .00016139  00000+0  30107-3 0  9999", "line2": "2 41884  34.9607  14.2650 0010664 228.0607 131.9207 15.47820001500541"}}, "geometry": {"type": "Point", "coordinates": [42.06044768057904, 19.90218421880325]}}, {"type": "Feature", "properties": {"norad_id": 41885, "name": "CYGFM04", "group": "weather", "lat": -16.197568370805275, "lon": -39.12476233263754, "alt_km": 413.69155579198923, "timestamp": "2025-12-18T07:01:54.229538+00:00", "meta": {"OBJECT_NAME": "CYGFM04", "OBJECT_ID": "2016-078B", "EPOCH": "2025-12-17T09:31:26.788512", "MEAN_MOTION": 15.50553035, "ECCENTRICITY": 0.00097836, "INCLINATION": 34.9357, "RA_OF_ASC_NODE": 351.3477, "ARG_OF_PERICENTER": 250.2509, "MEAN_ANOMALY": 109.7158, "EPHEMERIS_TYPE": 0, "CLASSIFICATION_TYPE": "U", "NORAD_CAT_ID": 41885, "ELEMENT_SET_NO": 999, "REV_AT_EPOCH": 50066, "BSTAR": 0.0003301433, "MEAN_MOTION_DOT": 0.00019503, "MEAN_MOTION_DDOT": 0}, "tle": {"line1": "1 41885U 16078B   25351.39683783  .00019503  00000+0  33014-3 0  9992", "line2": "2 41885  34.9357 351.3477 0009783 250.2509 109.7158 15.50553035500669"}}, "geometry": {"type": "Point", "coordinates": [-39.12476233263754, -16.197568370805275]}}, {"type": "Feature", "properties": {"norad_id": 41886, "name": "CYGFM02", "group": "weather", "lat": 6.6763941132876745, "lon": -6.629670209054328, "alt_km": 411.9951887426505, "timestamp": "2025-12-18T07:01:54.229548+00:00", "meta": {"OBJECT_NAME": "CYGFM02", "OBJECT_ID": "2016-078C", "EPOCH": "2025-12-17T17:05:13.985088", "MEAN_MOTION": 15.51959482, "ECCENTRICITY": 0.00114929, "INCLINATION": 34.9446, "RA_OF_ASC_NODE": 347.5407, "ARG_OF_PERICENTER": 252.9, "MEAN_ANOMALY": 107.0464, "EPHEMERIS_TYPE": 0, "CLASSIFICATION_TYPE": "U", "NORAD_CAT_ID": 41886, "ELEMENT_SET_NO": 999, "REV_AT_EPOCH": 50084, "BSTAR": 0.00033366708, "MEAN_MOTION_DOT": 0.00020752, "MEAN_MOTION_DDOT": 0}, "tle": {"line1": "1 41886U 16078C   25351.71196742  .00020752  00000+0  33367-3 0  9992", "line2": "2 41886  34.9446 347.5407 0011492 252.9000 107.0464 15.51959482500842"}}, "geometry": {"type": "Point", "coordinates": [-6.629670209054328, 6.6763941132876745]}}, {"type": "Feature", "properties": {"norad_id": 41887, "name": "CYGFM01", "group": "weather", "lat": 34.891141606575694, "lon": 106.01915178141356, "alt_km": 419.65032593103206, "timestamp": "2025-12-18T07:01:54.229559+00:00", "meta": {"OBJECT_NAME": "CYGFM01", "OBJECT_ID": "2016-078D", "EPOCH": "2025-12-17T18:15:19.969920", "MEAN_MOTION": 15.48404489, "ECCENTRICITY": 0.00102619, "INCLINATION": 34.9438, "RA_OF_ASC_NODE": 16.6435, "ARG_OF_PERICENTER": 220.3552, "MEAN_ANOMALY": 139.6409, "EPHEMERIS_TYPE": 0, "CLASSIFICATION_TYPE": "U", "NORAD_CAT_ID": 41887, "ELEMENT_SET_NO": 999, "REV_AT_EPOCH": 50048, "BSTAR": 0.00029799004, "MEAN_MOTION_DOT": 0.00016303, "MEAN_MOTION_DDOT": 0}, "tle": {"line1": "1 41887U 16078D   25351.76064780  .00016303  00000+0  29799-3 0  9995", "line2": "2 41887  34.9438  16.6435 0010261 220.3552 139.6409 15.48404489500481"}}, "geometry": {"type": "Point", "coordinates": [106.01915178141356, 34.891141606575694]}}, {"type": "Feature", "properties": {"norad_id": 41888, "name": "CYGFM08", "group": "weather", "lat": 8.477430214311905, "lon": 163.7642513734919, "alt_km": 414.56471999114547, "timestamp": "2025-12-18T07:01:54.229570+00:00", "meta": {"OBJECT_NAME": "CYGFM08", "OBJECT_ID": "2016-078E", "EPOCH": "2025-12-17T10:13:20.352000", "MEAN_MOTION": 15.49609787, "ECCENTRICITY": 0.00119546, "INCLINATION": 34.9467, "RA_OF_ASC_NODE": 1.7697, "ARG_OF_PERICENTER": 240.3602, "MEAN_ANOMALY": 119.593, "EPHEMERIS_TYPE": 0, "CLASSIFICATION_TYPE": "U", "NORAD_CAT_ID": 41888, "ELEMENT_SET_NO": 999, "REV_AT_EPOCH": 50066, "BSTAR": 0.00032626719, "MEAN_MOTION_DOT": 0.00018652, "MEAN_MOTION_DDOT": 0}, "tle": {"line1": "1 41888U 16078E   25351.42593000  .00018652  00000+0  32627-3 0  9994", "line2": "2 41888  34.9467   1.7697 0011954 240.3602 119.5930 15.49609787500662"}}, "geometry": {"type": "Point", "coordinates": [163.7642513734919, 8.477430214311905]}}, {"type": "Feature", "properties": {"norad_id": 41890, "name": "CYGFM07", "group": "weather", "lat": 8.777467503507927, "lon": 152.2641469980107, "alt_km": 414.80245595335055, "timestamp": "2025-12-18T07:01:54.229580+00:00", "meta": {"OBJECT_NAME": "CYGFM07", "OBJECT_ID": "2016-078G", "EPOCH": "2025-12-17T16:24:53.722368", "MEAN_MOTION": 15.50206503, "ECCENTRICITY": 0.00101447, "INCLINATION": 34.9484, "RA_OF_ASC_NODE": 349.0318, "ARG_OF_PERICENTER": 257.747, "MEAN_ANOMALY": 102.2117, "EPHEMERIS_TYPE": 0, "CLASSIFICATION_TYPE": "U", "NORAD_CAT_ID": 41890, "ELEMENT_SET_NO": 999, "REV_AT_EPOCH": 50072, "BSTAR": 0.00031461083, "MEAN_MOTION_DOT": 0.00018354, "MEAN_MOTION_DDOT": 0}, "tle": {"line1": "1 41890U 16078G   25351.68395512  .00018354  00000+0  31461-3 0  9997", "line2": "2 41890  34.9484 349.0318 0010144 257.7470 102.2117 15.50206503500721"}}, "geometry": {"type": "Point", "coordinates": [152.2641469980107, 8.777467503507927]}}, {"type": "Feature", "properties": {"norad_id": 41891, "name": "CYGFM03", "group": "weather", "lat": -1.541408775252219, "lon": -15.249115854510102, "alt_km": 417.1763141994488, "timestamp": "2025-12-18T07:01:54.229591+00:00", "meta": {"OBJECT_NAME": "CYGFM03", "OBJECT_ID": "2016-078H", "EPOCH": "2025-12-17T09:24:14.472288", "MEAN_MOTION": 15.50092545, "ECCENTRICITY": 0.00096623, "INCLINATION": 34.9438, "RA_OF_ASC_NODE": 352.869, "ARG_OF_PERICENTER": 243.4739, "MEAN_ANOMALY": 116.4992, "EPHEMERIS_TYPE": 0, "CLASSIFICATION_TYPE": "U", "NORAD_CAT_ID": 41891, "ELEMENT_SET_NO": 999, "REV_AT_EPOCH": 50065, "BSTAR": 0.00032562614, "MEAN_MOTION_DOT": 0.00018919, "MEAN_MOTION_DDOT": 0}, "tle": {"line1": "1 41891U 16078H   25351.39183417  .00018919  00000+0  32563-3 0  9996", "line2": "2 41891  34.9438 352.8690 0009662 243.4739 116.4992 15.50092545500658"}}, "geometry": {"type": "Point", "coordinates": [-15.249115854510102, -1.541408775252219]}}]}